{
  "type": "FeatureCollection",
  "features": [
    {
      "type": "Feature",
      "properties": {
        "norad_id": 66909,
        "name": "SILVERSAT",
        "group": "stations",
        "lat": 33.21041808290025,
        "lon": 152.5283221433329,
        "alt_km": 408.57164319913136,
        "timestamp": "2025-12-16T23:36:34.944383+00:00",
        "meta_object_name": "SILVERSAT",
        "meta_object_id": "1998-067XV",
        "meta_epoch": "2025-12-15T14:58:08.164704",
        "meta_mean_motion": 15.52037636,
        "meta_eccentricity": 0.00041166,
        "meta_inclination": 51.6296,
        "meta_ra_of_asc_node": 128.048,
        "meta_arg_of_pericenter": 244.867,
        "meta_mean_anomaly": 115.1892,
        "meta_ephemeris_type": 0,
        "meta_classification_type": "U",
        "meta_norad_cat_id": 66909,
        "meta_element_set_no": 999,
        "meta_rev_at_epoch": 206,
        "meta_bstar": 0.00079995468,
        "meta_mean_motion_dot": 0.00048941,
        "meta_mean_motion_ddot": 0,
        "tle_line1": "1 66909U 98067XV  25349.62370561  .00048941  00000+0  79995-3 0  9990",
        "tle_line2": "2 66909  51.6296 128.0480 0004116 244.8670 115.1892 15.52037636  2060"
      },
      "geometry": {
        "type": "Point",
        "coordinates": [
          152.5283221433329,
          33.21041808290025
        ]
      }
    },
    {
      "type": "Feature",
      "properties": {
        "norad_id": 66910,
        "name": "1998-067XW",
        "group": "stations",
        "lat": 39.381193156909184,
        "lon": 161.83530843334051,
        "alt_km": 408.1035215134634,
        "timestamp": "2025-12-16T23:36:34.944393+00:00",
        "meta_object_name": "1998-067XW",
        "meta_object_id": "1998-067XW",
        "meta_epoch": "2025-12-15T16:28:26.170464",
        "meta_mean_motion": 15.52120253,
        "meta_eccentricity": 0.00047674,
        "meta_inclination": 51.6293,
        "meta_ra_of_asc_node": 127.717,
        "meta_arg_of_pericenter": 223.5527,
        "meta_mean_anomaly": 136.5086,
        "meta_ephemeris_type": 0,
        "meta_classification_type": "U",
        "meta_norad_cat_id": 66910,
        "meta_element_set_no": 999,
        "meta_rev_at_epoch": 207,
        "meta_bstar": 0.00072313444,
        "meta_mean_motion_dot": 0.00044307,
        "meta_mean_motion_ddot": 0,
        "tle_line1": "1 66910U 98067XW  25349.68641401  .00044307  00000+0  72313-3 0  9991",
        "tle_line2": "2 66910  51.6293 127.7170 0004767 223.5527 136.5086 15.52120253  2079"
      },
      "geometry": {
        "type": "Point",
        "coordinates": [
          161.83530843334051,
          39.381193156909184
        ]
      }
    },
    {
      "type": "Feature",
      "properties": {
        "norad_id": 66911,
        "name": "1998-067XX",
        "group": "stations",
        "lat": 44.176395056242576,
        "lon": 171.58796834813384,
        "alt_km": 406.0921210832894,
        "timestamp": "2025-12-16T23:36:34.944404+00:00",
        "meta_object_name": "1998-067XX",
        "meta_object_id": "1998-067XX",
        "meta_epoch": "2025-12-15T13:21:12.839040",
        "meta_mean_motion": 15.52435494,
        "meta_eccentricity": 0.00044725,
        "meta_inclination": 51.6293,
        "meta_ra_of_asc_node": 128.3487,
        "meta_arg_of_pericenter": 225.8375,
        "meta_mean_anomaly": 134.2248,
        "meta_ephemeris_type": 0,
        "meta_classification_type": "U",
        "meta_norad_cat_id": 66911,
        "meta_element_set_no": 999,
        "meta_rev_at_epoch": 204,
        "meta_bstar": 0.00085850941,
        "meta_mean_motion_dot": 0.00053353,
        "meta_mean_motion_ddot": 0,
        "tle_line1": "1 66911U 98067XX  25349.55639860  .00053353  00000+0  85851-3 0  9996",
        "tle_line2": "2 66911  51.6293 128.3487 0004472 225.8375 134.2248 15.52435494  2045"
      },
      "geometry": {
        "type": "Point",
        "coordinates": [
          171.58796834813384,
          44.176395056242576
        ]
      }
    },
    {
      "type": "Feature",
      "properties": {
        "norad_id": 66912,
        "name": "1998-067XY",
        "group": "stations",
        "lat": 20.268755435138658,
        "lon": 138.33592435664133,
        "alt_km": 412.2416305994775,
        "timestamp": "2025-12-16T23:36:34.944414+00:00",
        "meta_object_name": "1998-067XY",
        "meta_object_id": "1998-067XY",
        "meta_epoch": "2025-12-16T01:51:18.141984",
        "meta_mean_motion": 15.51468873,
        "meta_eccentricity": 0.00042589,
        "meta_inclination": 51.6299,
        "meta_ra_of_asc_node": 125.8265,
        "meta_arg_of_pericenter": 241.2877,
        "meta_mean_anomaly": 118.7684,
        "meta_ephemeris_type": 0,
        "meta_classification_type": "U",
        "meta_norad_cat_id": 66912,
        "meta_element_set_no": 999,
        "meta_rev_at_epoch": 212,
        "meta_bstar": 0.00068474677,
        "meta_mean_motion_dot": 0.00040934,
        "meta_mean_motion_ddot": 0,
        "tle_line1": "1 66912U 98067XY  25350.07729331  .00040934  00000+0  68475-3 0  9993",
        "tle_line2": "2 66912  51.6299 125.8265 0004258 241.2877 118.7684 15.51468873  2125"
      },
      "geometry": {
        "type": "Point",
        "coordinates": [
          138.33592435664133,
          20.268755435138658
        ]
      }
    }
  ]
}